1 33960U          19328.59166667  .00000000  00000-0  00000-0 0 00000
2 33960 097.7380 114.4290 0000000 000.0000 033.9050 15.01914300000000
1 33960U          19328.82361111  .00000000  00000-0  00000-0 0 00000
2 33960 097.7380 114.6580 0000000 000.0000 206.4050 15.01914300000000
1 33960U          19329.15416667  .00000000  00000-0  00000-0 0 00000
2 33960 097.7380 114.9840 0000000 000.0000 191.4060 15.01914300000000
1 33960U          19329.61875000  .00000000  00000-0  00000-0 0 00000
2 33960 097.7380 115.4420 0000000 000.0000 180.1560 15.01914300000000
1 33960U          19329.81458333  .00000000  00000-0  00000-0 0 00000
2 33960 097.7370 115.6350 0000000 000.0000 157.6570 15.01914300000000
1 33960U          19330.24375000  .00000000  00000-0  00000-0 0 00000
2 33960 097.7370 116.0580 0000000 000.0000 315.1580 15.01914300000000
1 33960U          19330.52083333  .00000000  00000-0  00000-0 0 00000
2 33960 097.7370 116.3310 0000000 000.0000 011.4080 15.01914300000000
1 33960U          19330.92152778  .00000000  00000-0  00000-0 0 00000
2 33960 097.7360 116.7260 0000000 000.0000 015.1590 15.01914300000000
1 33960U          19331.25138889  .00000000  00000-0  00000-0 0 00000
2 33960 097.7360 117.0510 0000000 000.0000 356.4090 15.01914300000000
1 33960U          19331.63680556  .00000000  00000-0  00000-0 0 00000
2 33960 097.7360 117.4310 0000000 000.0000 277.6600 15.01914300000000
1 33960U          19331.96666667  .00000000  00000-0  00000-0 0 00000
2 33960 097.7360 117.7560 0000000 000.0000 258.9100 15.01914300000000
1 33960U          19332.29930556  .00000000  00000-0  00000-0 0 00000
2 33960 097.7350 118.0840 0000000 000.0000 255.1610 15.01914300000000
1 33960U          19332.62152778  .00000000  00000-0  00000-0 0 00000
2 33960 097.7350 118.4020 0000000 000.0000 195.1620 15.01914300000000
1 33960U          19332.89583333  .00000000  00000-0  00000-0 0 00000
2 33960 097.7350 118.6720 0000000 000.0000 236.4120 15.01914300000000
